GLOBALSTAR M035         
1 25851U 99037A   25056.90565992 -.00000080  00000+0 -63624-3 0  9995
2 25851  51.9963 303.1392 0013759 157.9184 289.3020 11.04536553 83960
GLOBALSTAR M032         
1 25852U 99037B   25056.49895855  .00000019  00000+0  27373-2 0  9994
2 25852  51.9940 136.9437 0010696 340.9634  19.0765 11.19059468122283
GLOBALSTAR M051         
1 25853U 99037C   25056.91363544 -.00000019  00000+0  13009-2 0  9999
2 25853  51.9813 309.3310 0001440  36.7385 323.3524 11.42203632119672
GLOBALSTAR M030         
1 25854U 99037D   25057.14645935 -.00000118  00000+0 -91374-3 0  9996
2 25854  51.9868 121.9304 0003991 204.9668 155.0956 11.55100532137319
GLOBALSTAR M048         
1 25872U 99041A   25056.97430878 -.00000057  00000+0  34921-3 0  9995
2 25872  51.9338 239.9155 0013042 357.2448 163.9879 11.33854972112361
GLOBALSTAR M026         
1 25873U 99041B   25057.16168069 -.00000044  00000+0  73574-3 0  9991
2 25873  52.0014  61.6882 0001680  80.5087 358.2885 11.06828186136395
GLOBALSTAR M043         
1 25874U 99041C   25056.82006495 -.00000027  00000+0  12207-2 0  9994
2 25874  51.9442 343.4888 0013551 120.9924 272.9361 11.25689902110334
GLOBALSTAR M028         
1 25875U 99041D   25056.57868493 -.00000102  00000+0 -92148-5 0  9991
2 25875  51.9618 165.8602 0063585 188.4370 171.5426 12.50577614176216
